ALOS (DAICHI)           
1 28931U 06002A   26078.30589028  .00001194  00000+0  20816-3 0  9993
2 28931  98.1235  34.2141 0000723  81.0548 279.0740 14.69839661 74896
H-2A R/B                
1 28932U 06002B   26078.30845145  .00007620  00000+0  38048-3 0  9995
2 28932  98.2425 226.1618 0052132 208.0020 151.8404 15.16621051 95899
RESURS-DK 1             
1 29228U 06021A   26078.32157752  .00002560  00000+0  15152-3 0  9996
2 29228  69.9334 212.1061 0000912 137.0864 223.0373 15.12810420 88980
CZ-4B R/B               
1 29507U 06046C   26078.10795811  .00003603  00000+0  18361-3 0  9997
2 29507  97.5572 122.9912 0031938 233.0850 126.7457 15.16996872 61475
CZ-2C R/B               
1 31114U 07010B   26078.30712101  .00000111  00000+0  70222-4 0  9995
2 31114  98.3987 191.1042 0057841 266.0987  93.3576 14.20249622981088
COSMO-SKYMED 1          
1 31598U 07023A   26078.29238154  .00002597  00000+0  23318-3 0  9997
2 31598  97.8881 269.4027 0001479  87.7217 272.4174 14.96611637 16347
COSMOS 2428             
1 31792U 07029A   26078.30443146 -.00000021  00000+0  14617-4 0  9994
2 31792  70.9440 183.1638 0009485 267.2624  92.7411 14.12947451965454
SL-16 R/B               
1 31793U 07029B   26078.32078839  .00000350  00000+0  20590-3 0  9990
2 31793  70.9756 152.1408 0002328 276.4582 146.7927 14.14838640966735
KORONAS-FOTON           
1 33504U 09003A   26078.22987372  .00009812  00000+0  21726-3 0  9990
2 33504  82.4270 265.9565 0011785 118.5773 241.6662 15.43545810947218
CZ-2C R/B               
1 37731U 11030B   26078.12716987  .00001414  00000+0  18436-3 0  9994
2 37731  97.8561  35.2024 0051633 321.0741  48.8649 14.81256843791492
H-2A R/B                
1 38341U 12025E   26078.23135967  .00002474  00000+0  22716-3 0  9995
2 38341  98.4743  46.0425 0043178 282.0217  77.6164 14.95232422749647
SHIJIAN-16 (SJ-16)      
1 39358U 13057A   26078.28249090  .00001748  00000+0  17325-3 0  9991
2 39358  74.9738 166.9296 0015273  87.7661 272.5276 14.92387890672939
SL-4 R/B                
1 39679U 14021B   26078.30196859  .00010896  00000+0  24155-3 0  9999
2 39679  51.6058 290.3740 0096735 137.9724 222.8733 15.39484979657755
ALOS-2                  
1 39766U 14029A   26078.25471169  .00000993  00000+0  13960-3 0  9997
2 39766  97.9197 176.7133 0001463  93.2898 266.8481 14.79539196638282
YAOGAN-29               
1 41038U 15069A   26078.30801374  .00000766  00000+0  10096-3 0  9993
2 41038  98.0129 106.7629 0001248  23.9022 336.2249 14.83007210557306
ASTRO-H (HITOMI)        
1 41337U 16012A   26078.28489137  .00002517  00000+0  14512-3 0  9993
2 41337  30.9995 294.6255 0009619  67.4810 292.6846 15.10065625553684
HXMT (HUIYAN)           
1 42758U 17034A   26078.12403458  .00004732  00000+0  23971-3 0  9991
2 42758  43.0152 324.2187 0033044 293.3613  66.3761 15.17590040483973
