[{"OBJECT_NAME":"ALOS (DAICHI)","OBJECT_ID":"2006-002A","EPOCH":"2026-03-19T07:20:28.920192","MEAN_MOTION":14.69839661,"ECCENTRICITY":7.238e-5,"INCLINATION":98.1235,"RA_OF_ASC_NODE":34.2141,"ARG_OF_PERICENTER":81.0548,"MEAN_ANOMALY":279.074,"EPHEMERIS_TYPE":0,"CLASSIFICATION_TYPE":"U","NORAD_CAT_ID":28931,"ELEMENT_SET_NO":999,"REV_AT_EPOCH":7489,"BSTAR":0.00020815565,"MEAN_MOTION_DOT":1.194e-5,"MEAN_MOTION_DDOT":0},{"OBJECT_NAME":"H-2A R/B","OBJECT_ID":"2006-002B","EPOCH":"2026-03-19T07:24:10.205280","MEAN_MOTION":15.16621051,"ECCENTRICITY":0.0052132,"INCLINATION":98.2425,"RA_OF_ASC_NODE":226.1618,"ARG_OF_PERICENTER":208.002,"MEAN_ANOMALY":151.8404,"EPHEMERIS_TYPE":0,"CLASSIFICATION_TYPE":"U","NORAD_CAT_ID":28932,"ELEMENT_SET_NO":999,"REV_AT_EPOCH":9589,"BSTAR":0.0003804842,"MEAN_MOTION_DOT":7.62e-5,"MEAN_MOTION_DDOT":0},{"OBJECT_NAME":"RESURS-DK 1","OBJECT_ID":"2006-021A","EPOCH":"2026-03-19T07:43:04.297728","MEAN_MOTION":15.1281042,"ECCENTRICITY":9.123e-5,"INCLINATION":69.9334,"RA_OF_ASC_NODE":212.1061,"ARG_OF_PERICENTER":137.0864,"MEAN_ANOMALY":223.0373,"EPHEMERIS_TYPE":0,"CLASSIFICATION_TYPE":"U","NORAD_CAT_ID":29228,"ELEMENT_SET_NO":999,"REV_AT_EPOCH":8898,"BSTAR":0.00015152057,"MEAN_MOTION_DOT":2.56e-5,"MEAN_MOTION_DDOT":0},{"OBJECT_NAME":"CZ-4B R/B","OBJECT_ID":"2006-046C","EPOCH":"2026-03-19T02:35:27.580704","MEAN_MOTION":15.16996872,"ECCENTRICITY":0.00319382,"INCLINATION":97.5572,"RA_OF_ASC_NODE":122.9912,"ARG_OF_PERICENTER":233.085,"MEAN_ANOMALY":126.7457,"EPHEMERIS_TYPE":0,"CLASSIFICATION_TYPE":"U","NORAD_CAT_ID":29507,"ELEMENT_SET_NO":999,"REV_AT_EPOCH":6147,"BSTAR":0.00018361383,"MEAN_MOTION_DOT":3.603e-5,"MEAN_MOTION_DDOT":0},{"OBJECT_NAME":"CZ-2C R/B","OBJECT_ID":"2007-010B","EPOCH":"2026-03-19T07:22:15.255264","MEAN_MOTION":14.20249622,"ECCENTRICITY":0.00578413,"INCLINATION":98.3987,"RA_OF_ASC_NODE":191.1042,"ARG_OF_PERICENTER":266.0987,"MEAN_ANOMALY":93.3576,"EPHEMERIS_TYPE":0,"CLASSIFICATION_TYPE":"U","NORAD_CAT_ID":31114,"ELEMENT_SET_NO":999,"REV_AT_EPOCH":98108,"BSTAR":7.022171e-5,"MEAN_MOTION_DOT":1.11e-6,"MEAN_MOTION_DDOT":0},{"OBJECT_NAME":"COSMO-SKYMED 1","OBJECT_ID":"2007-023A","EPOCH":"2026-03-19T07:01:01.765056","MEAN_MOTION":14.96611637,"ECCENTRICITY":0.00014795,"INCLINATION":97.8881,"RA_OF_ASC_NODE":269.4027,"ARG_OF_PERICENTER":87.7217,"MEAN_ANOMALY":272.4174,"EPHEMERIS_TYPE":0,"CLASSIFICATION_TYPE":"U","NORAD_CAT_ID":31598,"ELEMENT_SET_NO":999,"REV_AT_EPOCH":1634,"BSTAR":0.00023317757,"MEAN_MOTION_DOT":2.597e-5,"MEAN_MOTION_DDOT":0},{"OBJECT_NAME":"COSMOS 2428","OBJECT_ID":"2007-029A","EPOCH":"2026-03-19T07:18:22.878144","MEAN_MOTION":14.12947451,"ECCENTRICITY":0.00094859,"INCLINATION":70.944,"RA_OF_ASC_NODE":183.1638,"ARG_OF_PERICENTER":267.2624,"MEAN_ANOMALY":92.7411,"EPHEMERIS_TYPE":0,"CLASSIFICATION_TYPE":"U","NORAD_CAT_ID":31792,"ELEMENT_SET_NO":999,"REV_AT_EPOCH":96545,"BSTAR":1.4616584e-5,"MEAN_MOTION_DOT":-2.1e-7,"MEAN_MOTION_DDOT":0},{"OBJECT_NAME":"SL-16 R/B","OBJECT_ID":"2007-029B","EPOCH":"2026-03-19T07:41:56.116896","MEAN_MOTION":14.1483864,"ECCENTRICITY":0.0002328,"INCLINATION":70.9756,"RA_OF_ASC_NODE":152.1408,"ARG_OF_PERICENTER":276.4582,"MEAN_ANOMALY":146.7927,"EPHEMERIS_TYPE":0,"CLASSIFICATION_TYPE":"U","NORAD_CAT_ID":31793,"ELEMENT_SET_NO":999,"REV_AT_EPOCH":96673,"BSTAR":0.00020590248,"MEAN_MOTION_DOT":3.5e-6,"MEAN_MOTION_DDOT":0},{"OBJECT_NAME":"KORONAS-FOTON","OBJECT_ID":"2009-003A","EPOCH":"2026-03-19T05:31:01.089408","MEAN_MOTION":15.4354581,"ECCENTRICITY":0.00117858,"INCLINATION":82.427,"RA_OF_ASC_NODE":265.9565,"ARG_OF_PERICENTER":118.5773,"MEAN_ANOMALY":241.6662,"EPHEMERIS_TYPE":0,"CLASSIFICATION_TYPE":"U","NORAD_CAT_ID":33504,"ELEMENT_SET_NO":999,"REV_AT_EPOCH":94721,"BSTAR":0.00021725514,"MEAN_MOTION_DOT":9.812e-5,"MEAN_MOTION_DDOT":0},{"OBJECT_NAME":"CZ-2C R/B","OBJECT_ID":"2011-030B","EPOCH":"2026-03-19T03:03:07.476768","MEAN_MOTION":14.81256843,"ECCENTRICITY":0.00516333,"INCLINATION":97.8561,"RA_OF_ASC_NODE":35.2024,"ARG_OF_PERICENTER":321.0741,"MEAN_ANOMALY":48.8649,"EPHEMERIS_TYPE":0,"CLASSIFICATION_TYPE":"U","NORAD_CAT_ID":37731,"ELEMENT_SET_NO":999,"REV_AT_EPOCH":79149,"BSTAR":0.00018435874,"MEAN_MOTION_DOT":1.414e-5,"MEAN_MOTION_DDOT":0},{"OBJECT_NAME":"H-2A R/B","OBJECT_ID":"2012-025E","EPOCH":"2026-03-19T05:33:09.475488","MEAN_MOTION":14.95232422,"ECCENTRICITY":0.00431786,"INCLINATION":98.4743,"RA_OF_ASC_NODE":46.0425,"ARG_OF_PERICENTER":282.0217,"MEAN_ANOMALY":77.6164,"EPHEMERIS_TYPE":0,"CLASSIFICATION_TYPE":"U","NORAD_CAT_ID":38341,"ELEMENT_SET_NO":999,"REV_AT_EPOCH":74964,"BSTAR":0.0002271589,"MEAN_MOTION_DOT":2.474e-5,"MEAN_MOTION_DDOT":0},{"OBJECT_NAME":"SHIJIAN-16 (SJ-16)","OBJECT_ID":"2013-057A","EPOCH":"2026-03-19T06:46:47.213760","MEAN_MOTION":14.9238789,"ECCENTRICITY":0.00152738,"INCLINATION":74.9738,"RA_OF_ASC_NODE":166.9296,"ARG_OF_PERICENTER":87.7661,"MEAN_ANOMALY":272.5276,"EPHEMERIS_TYPE":0,"CLASSIFICATION_TYPE":"U","NORAD_CAT_ID":39358,"ELEMENT_SET_NO":999,"REV_AT_EPOCH":67293,"BSTAR":0.00017324944,"MEAN_MOTION_DOT":1.748e-5,"MEAN_MOTION_DDOT":0},{"OBJECT_NAME":"SL-4 R/B","OBJECT_ID":"2014-021B","EPOCH":"2026-03-19T07:14:50.086176","MEAN_MOTION":15.39484979,"ECCENTRICITY":0.00967356,"INCLINATION":51.6058,"RA_OF_ASC_NODE":290.374,"ARG_OF_PERICENTER":137.9724,"MEAN_ANOMALY":222.8733,"EPHEMERIS_TYPE":0,"CLASSIFICATION_TYPE":"U","NORAD_CAT_ID":39679,"ELEMENT_SET_NO":999,"REV_AT_EPOCH":65775,"BSTAR":0.00024155003,"MEAN_MOTION_DOT":0.00010896,"MEAN_MOTION_DDOT":0},{"OBJECT_NAME":"ALOS-2","OBJECT_ID":"2014-029A","EPOCH":"2026-03-19T06:06:47.090016","MEAN_MOTION":14.79539196,"ECCENTRICITY":0.0001463,"INCLINATION":97.9197,"RA_OF_ASC_NODE":176.7133,"ARG_OF_PERICENTER":93.2898,"MEAN_ANOMALY":266.8481,"EPHEMERIS_TYPE":0,"CLASSIFICATION_TYPE":"U","NORAD_CAT_ID":39766,"ELEMENT_SET_NO":999,"REV_AT_EPOCH":63828,"BSTAR":0.00013959611,"MEAN_MOTION_DOT":9.93e-6,"MEAN_MOTION_DDOT":0},{"OBJECT_NAME":"YAOGAN-29","OBJECT_ID":"2015-069A","EPOCH":"2026-03-19T07:23:32.387136","MEAN_MOTION":14.8300721,"ECCENTRICITY":0.00012484,"INCLINATION":98.0129,"RA_OF_ASC_NODE":106.7629,"ARG_OF_PERICENTER":23.9022,"MEAN_ANOMALY":336.2249,"EPHEMERIS_TYPE":0,"CLASSIFICATION_TYPE":"U","NORAD_CAT_ID":41038,"ELEMENT_SET_NO":999,"REV_AT_EPOCH":55730,"BSTAR":0.00010095854,"MEAN_MOTION_DOT":7.66e-6,"MEAN_MOTION_DDOT":0},{"OBJECT_NAME":"ASTRO-H (HITOMI)","OBJECT_ID":"2016-012A","EPOCH":"2026-03-19T06:50:14.614368","MEAN_MOTION":15.10065625,"ECCENTRICITY":0.00096195,"INCLINATION":30.9995,"RA_OF_ASC_NODE":294.6255,"ARG_OF_PERICENTER":67.481,"MEAN_ANOMALY":292.6846,"EPHEMERIS_TYPE":0,"CLASSIFICATION_TYPE":"U","NORAD_CAT_ID":41337,"ELEMENT_SET_NO":999,"REV_AT_EPOCH":55368,"BSTAR":0.00014512394,"MEAN_MOTION_DOT":2.517e-5,"MEAN_MOTION_DDOT":0},{"OBJECT_NAME":"HXMT (HUIYAN)","OBJECT_ID":"2017-034A","EPOCH":"2026-03-19T02:58:36.587712","MEAN_MOTION":15.1759004,"ECCENTRICITY":0.00330444,"INCLINATION":43.0152,"RA_OF_ASC_NODE":324.2187,"ARG_OF_PERICENTER":293.3613,"MEAN_ANOMALY":66.3761,"EPHEMERIS_TYPE":0,"CLASSIFICATION_TYPE":"U","NORAD_CAT_ID":42758,"ELEMENT_SET_NO":999,"REV_AT_EPOCH":48397,"BSTAR":0.00023970894,"MEAN_MOTION_DOT":4.732e-5,"MEAN_MOTION_DDOT":0}]
